IRIDIUM 112             
1 41925U 17003J   25046.70743247  .00000401  00000+0  13597-3 0  9995
2 41925  86.3950 291.5870 0001920  88.4111 271.7305 14.34218394423576
IRIDIUM 111             
1 41926U 17003K   25046.76451693 -.00000089  00000+0 -38996-4 0  9998
2 41926  86.3951 291.6228 0002180  84.1705 275.9739 14.34217180423600
IRIDIUM 113             
1 42803U 17039A   25046.81424967  .00000622  00000+0  21514-3 0  9990
2 42803  86.4040 165.4462 0001854 109.4019 250.7377 14.34218234401470
IRIDIUM 120             
1 42805U 17039C   25046.80790500  .00000186  00000+0  59490-4 0  9990
2 42805  86.4030 165.2950 0002278  89.9669 270.1788 14.34219456401463
IRIDIUM 115             
1 42806U 17039D   25046.55475879  .00000875  00000+0  25409-3 0  9999
2 42806  86.4568 165.4615 0002699  97.6770 262.4737 14.43285810404071
IRIDIUM 118             
1 42807U 17039E   25046.81766947  .00000517  00000+0  17767-3 0  9999
2 42807  86.4006 196.8635 0001987  95.4665 264.6757 14.34214251400249
IRIDIUM 117             
1 42808U 17039F   25046.83670187 -.00000021  00000+0 -14643-4 0  9995
2 42808  86.4010 196.8183 0002290  95.8961 264.2495 14.34217210400270
